[{"OBJECT_NAME":"GALAXY 33 (G-33)","OBJECT_ID":"2022-128A","EPOCH":"2026-03-07T12:33:38.603808","MEAN_MOTION":1.00270944,"ECCENTRICITY":0.0001897,"INCLINATION":0.0166,"RA_OF_ASC_NODE":148.3192,"ARG_OF_PERICENTER":208.4764,"MEAN_ANOMALY":223.8558,"EPHEMERIS_TYPE":0,"CLASSIFICATION_TYPE":"U","NORAD_CAT_ID":54026,"ELEMENT_SET_NO":999,"REV_AT_EPOCH":1272,"BSTAR":0,"MEAN_MOTION_DOT":0,"MEAN_MOTION_DDOT":0},{"OBJECT_NAME":"GALAXY 34 (G-34)","OBJECT_ID":"2022-128B","EPOCH":"2026-03-07T11:18:38.890944","MEAN_MOTION":1.00270911,"ECCENTRICITY":0.00015005,"INCLINATION":0.0175,"RA_OF_ASC_NODE":119.2256,"ARG_OF_PERICENTER":224.071,"MEAN_ANOMALY":222.5319,"EPHEMERIS_TYPE":0,"CLASSIFICATION_TYPE":"U","NORAD_CAT_ID":54027,"ELEMENT_SET_NO":999,"REV_AT_EPOCH":1289,"BSTAR":0,"MEAN_MOTION_DOT":5.8e-7,"MEAN_MOTION_DDOT":0},{"OBJECT_NAME":"GALAXY 31 (G-31)","OBJECT_ID":"2022-153A","EPOCH":"2026-03-07T11:10:38.474112","MEAN_MOTION":1.00272285,"ECCENTRICITY":0.00014666,"INCLINATION":0.0094,"RA_OF_ASC_NODE":167.8142,"ARG_OF_PERICENTER":192.5841,"MEAN_ANOMALY":211.4212,"EPHEMERIS_TYPE":0,"CLASSIFICATION_TYPE":"U","NORAD_CAT_ID":54243,"ELEMENT_SET_NO":999,"REV_AT_EPOCH":611,"BSTAR":0,"MEAN_MOTION_DOT":1.2e-7,"MEAN_MOTION_DDOT":0},{"OBJECT_NAME":"GALAXY 32 (G-32)","OBJECT_ID":"2022-153B","EPOCH":"2026-03-07T03:12:59.522400","MEAN_MOTION":1.00272304,"ECCENTRICITY":0.00029908,"INCLINATION":0.0185,"RA_OF_ASC_NODE":107.4788,"ARG_OF_PERICENTER":249.2635,"MEAN_ANOMALY":125.3419,"EPHEMERIS_TYPE":0,"CLASSIFICATION_TYPE":"U","NORAD_CAT_ID":54244,"ELEMENT_SET_NO":999,"REV_AT_EPOCH":1212,"BSTAR":0,"MEAN_MOTION_DOT":-1.77e-6,"MEAN_MOTION_DDOT":0},{"OBJECT_NAME":"GALAXY 35 (G-35)","OBJECT_ID":"2022-170A","EPOCH":"2026-03-07T07:54:38.721312","MEAN_MOTION":1.00270909,"ECCENTRICITY":0.00020099,"INCLINATION":0.0093,"RA_OF_ASC_NODE":174.1461,"ARG_OF_PERICENTER":176.9389,"MEAN_ANOMALY":199.4965,"EPHEMERIS_TYPE":0,"CLASSIFICATION_TYPE":"U","NORAD_CAT_ID":54741,"ELEMENT_SET_NO":999,"REV_AT_EPOCH":1187,"BSTAR":0,"MEAN_MOTION_DOT":-1.64e-6,"MEAN_MOTION_DDOT":0},{"OBJECT_NAME":"GALAXY 36 (G-36)","OBJECT_ID":"2022-170B","EPOCH":"2026-03-07T08:26:38.710752","MEAN_MOTION":1.00272318,"ECCENTRICITY":0.00021644,"INCLINATION":0.0208,"RA_OF_ASC_NODE":132.9369,"ARG_OF_PERICENTER":268.2013,"MEAN_ANOMALY":161.5705,"EPHEMERIS_TYPE":0,"CLASSIFICATION_TYPE":"U","NORAD_CAT_ID":54742,"ELEMENT_SET_NO":999,"REV_AT_EPOCH":1175,"BSTAR":0,"MEAN_MOTION_DOT":-1.87e-6,"MEAN_MOTION_DDOT":0},{"OBJECT_NAME":"GALAXY 37 (G-37)","OBJECT_ID":"2023-112A","EPOCH":"2026-03-07T12:33:38.603808","MEAN_MOTION":1.0027238,"ECCENTRICITY":0.00020344,"INCLINATION":0.0153,"RA_OF_ASC_NODE":104.8074,"ARG_OF_PERICENTER":248.7216,"MEAN_ANOMALY":233.0938,"EPHEMERIS_TYPE":0,"CLASSIFICATION_TYPE":"U","NORAD_CAT_ID":57493,"ELEMENT_SET_NO":999,"REV_AT_EPOCH":952,"BSTAR":0,"MEAN_MOTION_DOT":4.7e-7,"MEAN_MOTION_DDOT":0}]
