GALAXY 33 (G-33)        
1 54026U 22128A   26066.52336347  .00000000  00000+0  00000+0 0  9993
2 54026   0.0166 148.3192 0001897 208.4764 223.8558  1.00270944 12728
GALAXY 34 (G-34)        
1 54027U 22128B   26066.47128346  .00000058  00000+0  00000+0 0  9999
2 54027   0.0175 119.2256 0001500 224.0710 222.5319  1.00270911 12896
GALAXY 31 (G-31)        
1 54243U 22153A   26066.46572308  .00000012  00000+0  00000+0 0  9997
2 54243   0.0094 167.8142 0001466 192.5841 211.4212  1.00272285  6117
GALAXY 32 (G-32)        
1 54244U 22153B   26066.13402225 -.00000177  00000+0  00000+0 0  9995
2 54244   0.0185 107.4788 0002990 249.2635 125.3419  1.00272304 12121
GALAXY 35 (G-35)        
1 54741U 22170A   26066.32961483 -.00000164  00000+0  00000+0 0  9999
2 54741   0.0093 174.1461 0002009 176.9389 199.4965  1.00270909 11871
GALAXY 36 (G-36)        
1 54742U 22170B   26066.35183693 -.00000187  00000+0  00000+0 0  9997
2 54742   0.0208 132.9369 0002164 268.2013 161.5705  1.00272318 11755
GALAXY 37 (G-37)        
1 57493U 23112A   26066.52336347  .00000047  00000+0  00000+0 0  9999
2 57493   0.0153 104.8074 0002034 248.7216 233.0938  1.00272380  9529
